[{"OBJECT_NAME":"YUNHAI-3 02","OBJECT_ID":"2024-058A","EPOCH":"2026-03-10T00:11:17.100384","MEAN_MOTION":14.13462602,"ECCENTRICITY":8.134e-5,"INCLINATION":98.8243,"RA_OF_ASC_NODE":78.2315,"ARG_OF_PERICENTER":102.5423,"MEAN_ANOMALY":257.5841,"EPHEMERIS_TYPE":0,"CLASSIFICATION_TYPE":"U","NORAD_CAT_ID":59343,"ELEMENT_SET_NO":999,"REV_AT_EPOCH":10073,"BSTAR":5.3421416e-5,"MEAN_MOTION_DOT":5.7e-7,"MEAN_MOTION_DDOT":0},{"OBJECT_NAME":"UNKNOWN","OBJECT_ID":"","EPOCH":"2026-02-26T23:11:17.329056","MEAN_MOTION":14.10128568,"ECCENTRICITY":0.002495,"INCLINATION":66.8236,"RA_OF_ASC_NODE":172.2986,"ARG_OF_PERICENTER":182.2064,"MEAN_ANOMALY":291.0582,"EPHEMERIS_TYPE":0,"CLASSIFICATION_TYPE":"U","NORAD_CAT_ID":81674,"ELEMENT_SET_NO":999,"REV_AT_EPOCH":62446,"BSTAR":0.00061639,"MEAN_MOTION_DOT":1.014e-5,"MEAN_MOTION_DDOT":0}]
